[{"OBJECT_NAME":"HAWK-2A","OBJECT_ID":"2021-006CW","EPOCH":"2026-03-09T16:18:25.817472","MEAN_MOTION":15.33304498,"ECCENTRICITY":0.00064498,"INCLINATION":97.2459,"RA_OF_ASC_NODE":115.6184,"ARG_OF_PERICENTER":187.1463,"MEAN_ANOMALY":172.9689,"EPHEMERIS_TYPE":0,"CLASSIFICATION_TYPE":"U","NORAD_CAT_ID":47505,"ELEMENT_SET_NO":999,"REV_AT_EPOCH":28424,"BSTAR":0.0002543136,"MEAN_MOTION_DOT":8.113e-5,"MEAN_MOTION_DDOT":0},{"OBJECT_NAME":"STARLINK-34073","OBJECT_ID":"2025-137N","EPOCH":"2026-03-09T22:11:46.305600","MEAN_MOTION":15.30209045,"ECCENTRICITY":0.00019946,"INCLINATION":53.16,"RA_OF_ASC_NODE":333.9492,"ARG_OF_PERICENTER":51.2678,"MEAN_ANOMALY":308.8501,"EPHEMERIS_TYPE":0,"CLASSIFICATION_TYPE":"U","NORAD_CAT_ID":64606,"ELEMENT_SET_NO":999,"REV_AT_EPOCH":4065,"BSTAR":0.00093034824,"MEAN_MOTION_DOT":0.00027304,"MEAN_MOTION_DDOT":0}]
